NORAD_CAT_ID,OBJECT_NAME,OBJECT_TYPE,EPOCH,MEAN_MOTION,ECCENTRICITY,INCLINATION,RA_OF_ASC_NODE,ARG_OF_PERICENTER,MEAN_ANOMALY,BSTAR,MEAN_MOTION_DOT,MEAN_MOTION_DDOT,TLE_LINE0,TLE_LINE1,TLE_LINE2,SEMIMAJOR_AXIS,PERIOD,APOGEE,PERIGEE,DECAYED
53802.0,STARLINK-4726,PAYLOAD,2023-08-26 21:18:23,15.08838603,0.0001449,53.2176,100.0727,78.5687,281.5467,1.2321e-05,-9.2e-07,0.0,0 STARLINK-4726,1 53802U 22111AF  23238.88777103 -.00000092  00000-0  12321-4 0  9999,2 53802  53.2176 100.0727 0001449  78.5687 281.5467 15.08838603 54059,6917.885,95.438,540.752,538.747,0.0
53802.0,STARLINK-4726,PAYLOAD,2023-08-27 00:29:09,15.08840141,0.0001205,53.2171,99.4762,102.9426,257.1701,3.0354e-05,1.95e-06,0.0,0 STARLINK-4726,1 53802U 22111AF  23239.02024769  .00000195  00000-0  30354-4 0  9998,2 53802  53.2171  99.4762 0001205 102.9426 257.1701 15.08840141 54079,6917.88,95.438,540.579,538.911,0.0
53802.0,STARLINK-4726,PAYLOAD,2023-08-27 17:58:23,15.0884371,0.0001345,53.2177,96.2045,101.5526,258.5617,-9.05e-06,-4.32e-06,0.0,0 STARLINK-4726,1 53802U 22111AF  23239.74888729 -.00000432  00000-0 -90500-5 0  9997,2 53802  53.2177  96.2045 0001345 101.5526 258.5617 15.08843710 53373,6917.869,95.437,540.665,538.804,0.0
53802.0,STARLINK-4726,PAYLOAD,2023-08-27 21:09:09,15.08848243,0.0001338,53.2181,95.6097,95.6208,264.4937,-2.0173e-05,-6.09e-06,0.0,0 STARLINK-4726,1 53802U 22111AF  23239.88136497 -.00000609  00000-0 -20173-4 0  9994,2 53802  53.2181  95.6097 0001338  95.6208 264.4937 15.08848243 54200,6917.855,95.437,540.646,538.795,0.0
53802.0,STARLINK-4726,PAYLOAD,2023-08-28 20:59:57,15.08841186,0.0001344,53.2176,91.1497,85.5666,274.548,6.3605e-05,7.25e-06,0.0,0 STARLINK-4726,1 53802U 22111AF  23240.87496664  .00000725  00000-0  63605-4 0  9994,2 53802  53.2176  91.1497 0001344  85.5666 274.5480 15.08841186 54352,6917.877,95.437,540.672,538.812,0.0
53802.0,STARLINK-4726,PAYLOAD,2023-08-29 00:10:43,15.08840212,0.000129,53.2173,90.5554,84.7099,275.404,5.6363e-05,6.09e-06,0.0,0 STARLINK-4726,1 53802U 22111AF  23241.00744742  .00000609  00000-0  56363-4 0  9997,2 53802  53.2173  90.5554 0001290  84.7099 275.4040 15.08840212 53560,6917.88,95.438,540.637,538.852,0.0
53802.0,STARLINK-4726,PAYLOAD,2023-08-29 17:39:58,15.08833811,0.0001267,53.2173,87.2847,85.1481,274.9656,-4.2197e-05,-9.59e-06,0.0,0 STARLINK-4726,1 53802U 22111AF  23241.73609617 -.00000959  00000-0 -42197-4 0  9998,2 53802  53.2173  87.2847 0001267  85.1481 274.9656 15.08833811 53678,6917.899,95.438,540.641,538.888,0.0
53802.0,STARLINK-4726,PAYLOAD,2023-08-29 19:15:21,15.08833637,0.0001267,53.2174,86.9873,84.9326,275.1811,-4.4921e-05,-1.003e-05,0.0,0 STARLINK-4726,1 53802U 22111AF  23241.80233643 -.00001003  00000-0 -44921-4 0  9996,2 53802  53.2174  86.9873 0001267  84.9326 275.1811 15.08833637 54492,6917.9,95.438,540.641,538.888,0.0
53802.0,STARLINK-4726,PAYLOAD,2023-08-30 06:23:03,15.08837645,0.0001394,53.2176,84.9069,82.9796,277.1355,-4.0645e-05,-9.35e-06,0.0,0 STARLINK-4726,1 53802U 22111AF  23242.26601414 -.00000935  00000-0 -40645-4 0  9994,2 53802  53.2176  84.9069 0001394  82.9796 277.1355 15.08837645 54565,6917.888,95.438,540.717,538.788,0.0
53802.0,STARLINK-4726,PAYLOAD,2023-08-30 23:52:17,15.08853235,0.0001009,53.2177,81.6358,86.4769,273.6338,9.6146e-05,1.243e-05,0.0,0 STARLINK-4726,1 53802U 22111AF  23242.99464176  .00001243  00000-0  96146-4 0  9994,2 53802  53.2177  81.6358 0001009  86.4769 273.6338 15.08853235 53860,6917.84,95.437,540.403,539.007,0.0
53802.0,STARLINK-4726,PAYLOAD,2023-08-31 06:13:50,15.08838282,0.000122,53.2171,80.4452,87.7327,272.3805,-1.4139e-05,-5.13e-06,0.0,0 STARLINK-4726,1 53802U 22111AF  23243.25961470 -.00000513  00000-0 -14139-4 0  9996,2 53802  53.2171  80.4452 0001220  87.7327 272.3805 15.08838282 53900,6917.886,95.438,540.595,538.907,0.0
53802.0,STARLINK-4726,PAYLOAD,2023-09-01 06:04:37,15.08839428,0.00013,53.2166,75.9848,76.6865,283.4272,5.3131e-05,5.58e-06,0.0,0 STARLINK-4726,1 53802U 22111AF  23244.25321611  .00000558  00000-0  53131-4 0  9996,2 53802  53.2166  75.9848 0001300  76.6865 283.4272 15.08839428 54865,6917.882,95.438,540.646,538.848,0.0
53802.0,STARLINK-4726,PAYLOAD,2023-09-01 18:47:42,15.08839312,0.000112,53.2175,73.6058,85.6519,274.4601,5.2248e-05,5.44e-06,0.0,0 STARLINK-4726,1 53802U 22111AF  23244.78313606  .00000544  00000-0  52248-4 0  9992,2 53802  53.2175  73.6058 0001120  85.6519 274.4601 15.08839312 54946,6917.882,95.438,540.522,538.973,0.0
53802.0,STARLINK-4726,PAYLOAD,2023-09-02 12:16:57,15.08840598,0.0001387,53.2139,70.3363,84.7718,275.3432,4.7115e-05,4.62e-06,0.0,0 STARLINK-4726,1 53802U 22111AF  23245.51177631  .00000462  00000-0  47115-4 0  9996,2 53802  53.2139  70.3363 0001387  84.7718 275.3432 15.08840598 55058,6917.879,95.438,540.703,538.784,0.0
53802.0,STARLINK-4726,PAYLOAD,2023-09-02 18:38:30,15.08840151,0.0001385,53.2154,69.1452,91.2294,268.8857,5.046e-05,5.15e-06,0.0,0 STARLINK-4726,1 53802U 22111AF  23245.77673657  .00000515  00000-0  50460-4 0  9999,2 53802  53.2154  69.1452 0001385  91.2294 268.8857 15.08840151 55097,6917.88,95.438,540.703,538.787,0.0
53802.0,STARLINK-4726,PAYLOAD,2023-09-03 05:46:11,15.08842591,0.0001252,53.218,67.0639,92.4093,267.7043,6.9826e-05,8.24e-06,0.0,0 STARLINK-4726,1 53802U 22111AF  23246.24041421  .00000824  00000-0  69826-4 0  9999,2 53802  53.2180  67.0639 0001252  92.4093 267.7043 15.08842591 54356,6917.872,95.437,540.604,538.871,0.0
53802.0,STARLINK-4726,PAYLOAD,2023-09-03 12:07:44,15.08839786,0.0001159,53.2183,65.8748,98.9849,261.1274,5.8755e-05,6.47e-06,0.0,0 STARLINK-4726,1 53802U 22111AF  23246.50537563  .00000647  00000-0  58755-4 0  9997,2 53802  53.2183  65.8748 0001159  98.9849 261.1274 15.08839786 55203,6917.881,95.438,540.548,538.944,0.0
53802.0,STARLINK-4726,PAYLOAD,2023-09-04 11:58:31,15.08833913,0.0001467,53.2159,61.4142,92.4319,267.6841,6.275e-06,-1.88e-06,0.0,0 STARLINK-4726,1 53802U 22111AF  23247.49898120 -.00000188  00000-0  62750-5 0  9997,2 53802  53.2159  61.4142 0001467  92.4319 267.6841 15.08833913 55352,6917.899,95.438,540.779,538.749,0.0
53802.0,STARLINK-4726,PAYLOAD,2023-09-05 11:49:19,15.08836836,0.0001409,53.2173,56.9534,99.9394,260.1757,-1.5602e-07,-2.9e-06,0.0,0 STARLINK-4726,1 53802U 22111AF  23248.49258168 -.00000290  00000-0 -15602-6 0  9990,2 53802  53.2173  56.9534 0001409  99.9394 260.1757 15.08836836 55501,6917.89,95.438,540.73,538.78,0.0
53802.0,STARLINK-4726,PAYLOAD,2023-09-05 18:10:51,15.08840311,0.0001427,53.2166,55.7647,92.1501,267.9654,1.3526e-05,-7.3e-07,0.0,0 STARLINK-4726,1 53802U 22111AF  23248.75753955 -.00000073  00000-0  13526-4 0  9992,2 53802  53.2166  55.7647 0001427  92.1501 267.9654 15.08840311 54738,6917.879,95.438,540.732,538.757,0.0
53802.0,STARLINK-4726,PAYLOAD,2023-09-06 11:40:06,15.08836821,0.0001202,53.2172,52.4938,92.7273,267.3857,6.4087e-05,7.32e-06,0.0,0 STARLINK-4726,1 53802U 22111AF  23249.48618203  .00000732  00000-0  64087-4 0  9998,2 53802  53.2172  52.4938 0001202  92.7273 267.3857 15.08836821 55657,6917.89,95.438,540.587,538.924,0.0
53802.0,STARLINK-4726,PAYLOAD,2023-09-06 21:12:24,15.08842115,0.0001217,53.217,50.7095,91.2681,268.845,0.00010232,1.341e-05,0.0,0 STARLINK-4726,1 53802U 22111AF  23249.88361783  .00001341  00000-0  10232-3 0  9999,2 53802  53.2170  50.7095 0001217  91.2681 268.8450 15.08842115 55718,6917.874,95.437,540.581,538.897,0.0
53802.0,STARLINK-4726,PAYLOAD,2023-09-07 09:55:30,15.08836044,0.0001121,53.2181,48.3311,89.1806,270.9314,5.9745e-05,6.63e-06,0.0,0 STARLINK-4726,1 53802U 22111AF  23250.41354345  .00000663  00000-0  59745-4 0  9995,2 53802  53.2181  48.3311 0001121  89.1806 270.9314 15.08836044 54988,6917.892,95.438,540.533,538.982,0.0
53802.0,STARLINK-4726,PAYLOAD,2023-09-07 11:30:53,15.08840801,0.0001199,53.2185,48.0341,89.8887,270.2242,-7.6563e-05,-1.506e-05,0.0,0 STARLINK-4726,1 53802U 22111AF  23250.47978561 -.00001506  00000-0 -76563-4 0  9999,2 53802  53.2185  48.0341 0001199  89.8887 270.2242 15.08840801 55804,6917.878,95.438,540.572,538.913,0.0
53802.0,STARLINK-4726,PAYLOAD,2023-09-07 19:27:49,15.08839229,0.0001347,53.2179,46.5459,90.1351,269.9796,1.9418e-05,2.1e-07,0.0,0 STARLINK-4726,1 53802U 22111AF  23250.81098428  .00000021  00000-0  19418-4 0  9997,2 53802  53.2179  46.5459 0001347  90.1351 269.9796 15.08839229 55852,6917.883,95.438,540.68,538.816,0.0
53802.0,STARLINK-4726,PAYLOAD,2023-09-08 03:24:44,15.08838812,0.0001327,53.2178,45.0594,87.7353,272.3791,2.0301e-05,3.5e-07,0.0,0 STARLINK-4726,1 53802U 22111AF  23251.14218485  .00000035  00000-0  20301-4 0  9999,2 53802  53.2178  45.0594 0001327  87.7353 272.3791 15.08838812 55903,6917.884,95.438,540.667,538.831,0.0
53802.0,STARLINK-4726,PAYLOAD,2023-09-08 16:07:49,15.08832148,0.0002118,53.2194,42.6813,100.0333,260.0898,0.0001808,2.59e-05,0.0,0 STARLINK-4726,1 53802U 22111AF  23251.67210490  .00002590  00000-0  18080-3 0  9993,2 53802  53.2194  42.6813 0002118 100.0333 260.0898 15.08832148 55171,6917.904,95.438,541.235,538.304,0.0
53802.0,STARLINK-4726,PAYLOAD,2023-09-08 19:18:35,15.0884073,0.00014,53.2193,42.0866,89.3786,270.7366,0.00010333,1.357e-05,0.0,0 STARLINK-4726,1 53802U 22111AF  23251.80458164  .00001357  00000-0  10333-3 0  9993,2 53802  53.2193  42.0866 0001400  89.3786 270.7366 15.08840730 56003,6917.878,95.438,540.712,538.775,0.0
53802.0,STARLINK-4726,PAYLOAD,2023-09-09 09:37:04,15.08834847,0.0001446,53.2196,39.4104,84.083,276.0327,3.7545e-05,3.1e-06,0.0,0 STARLINK-4726,1 53802U 22111AF  23252.40074850  .00000310  00000-0  37545-4 0  9999,2 53802  53.2196  39.4104 0001446  84.0830 276.0327 15.08834847 56090,6917.896,95.438,540.761,538.761,0.0
53802.0,STARLINK-4726,PAYLOAD,2023-09-09 17:33:59,15.08841433,0.0001354,53.2188,37.9228,85.9292,274.1855,6.3635e-05,7.25e-06,0.0,0 STARLINK-4726,1 53802U 22111AF  23252.73194425  .00000725  00000-0  63635-4 0  9995,2 53802  53.2188  37.9228 0001354  85.9292 274.1855 15.08841433 55331,6917.876,95.437,540.678,538.804,0.0
